SHIYAN-1 (SY-1)         
1 28220U 04012A   26187.88317964  .00011290  00000+0  34239-3 0  9997
2 28220  97.8680 267.2376 0004165 314.4743  45.6158 15.34302109214115
SINAH 1                 
1 28893U 05043D   26187.87246927  .00000315  00000+0  69215-4 0  9996
2 28893  98.2884 322.3129 0013812 210.1044 149.9365 14.64171622103409
SKYSAT-A                
1 39418U 13066C   26187.70093888  .00002744  00000+0  15799-3 0  9998
2 39418  97.3802 236.4763 0019870 244.4924 115.4252 15.13083788691438
SKYSAT-B                
1 40072U 14037D   26187.35655464  .00001402  00000+0  15918-3 0  9993
2 40072  98.3848 147.4157 0004837 202.7715 157.3286 14.88077956648814
SKYSAT-C1               
1 41601U 16040C   26187.62426663  .00007669  00000+0  21640-3 0  9995
2 41601  96.9556 218.2931 0001234  14.2930 345.8350 15.36647042560859
SENTINEL-5P             
1 42969U 17064A   26187.72648153  .00000049  00000+0  44456-4 0  9997
2 42969  98.7927 129.7191 0001099  92.1824 267.9478 14.19522294452338
SKYSAT-C10              
1 42988U 17068B   26187.85149637  .00008544  00000+0  25401-3 0  9995
2 42988  97.4529 324.8970 0001295 109.0995 251.0388 15.34999647485373
SENTINEL-3B             
1 43437U 18039A   26187.68580545  .00000098  00000+0  58450-4 0  9999
2 43437  98.6239 254.9376 0000960 118.2910 241.8368 14.26740398426900
SENTINEL-6A             
1 46984U 20086A   26187.13601200 -.00000041  00000+0  87840-4 0  9990
2 46984  66.0415  95.6969 0007829 270.0295  89.9823 12.80930112262758
SENTINEL-6B             
1 66514U 25264A   26187.13636000 -.00000045  00000+0  68988-4 0  9996
2 66514  66.0415  95.8222 0007892 268.8789  91.1322 12.80930081 29593
